[{"OBJECT_NAME":"STARLINK-4358","OBJECT_ID":"2022-084AN","EPOCH":"2026-03-09T16:49:51.672000","MEAN_MOTION":15.05643906,"ECCENTRICITY":7.825e-5,"INCLINATION":97.6033,"RA_OF_ASC_NODE":131.1835,"ARG_OF_PERICENTER":112.5717,"MEAN_ANOMALY":247.5593,"EPHEMERIS_TYPE":0,"CLASSIFICATION_TYPE":"U","NORAD_CAT_ID":53225,"ELEMENT_SET_NO":999,"REV_AT_EPOCH":19938,"BSTAR":9.4536211e-5,"MEAN_MOTION_DOT":1.303e-5,"MEAN_MOTION_DDOT":0},{"OBJECT_NAME":"COSMOS 2251 DEB","OBJECT_ID":"1993-036AWN","EPOCH":"2026-03-09T06:26:08.321568","MEAN_MOTION":15.11257706,"ECCENTRICITY":0.00842289,"INCLINATION":74.0116,"RA_OF_ASC_NODE":284.5024,"ARG_OF_PERICENTER":350.308,"MEAN_ANOMALY":9.6482,"EPHEMERIS_TYPE":0,"CLASSIFICATION_TYPE":"U","NORAD_CAT_ID":35996,"ELEMENT_SET_NO":999,"REV_AT_EPOCH":73632,"BSTAR":0.00055219842,"MEAN_MOTION_DOT":0.00010085,"MEAN_MOTION_DDOT":0}]
